STARLINK-1893
1 26786C 20074AZ  21325.10816865  .00002337  00000-0  15656-3 0  3256
2 26786  53.0530 137.7351 0006125  89.3478 301.2488 15.06394298    13
